OBJECT_NAME,OBJECT_ID,EPOCH,MEAN_MOTION,ECCENTRICITY,INCLINATION,RA_OF_ASC_NODE,ARG_OF_PERICENTER,MEAN_ANOMALY,EPHEMERIS_TYPE,CLASSIFICATION_TYPE,NORAD_CAT_ID,ELEMENT_SET_NO,REV_AT_EPOCH,BSTAR,MEAN_MOTION_DOT,MEAN_MOTION_DDOT
SAR-LUPE 2,2007-030A,2026-07-11T18:48:59.665824,15.53500907,.0004553,98.1050,300.3402,214.7714,145.3241,0,U,31797,999,6075,.35479775E-3,.22453E-3,0
SAPPHIRE,2013-009C,2026-07-11T18:30:30.741696,14.35246982,.00113735,98.4271,11.6445,169.8080,190.3338,0,U,39088,999,70010,.32718427E-4,.51E-6,0
PRAETORIAN SDA_602,2025-203A,2026-07-11T12:44:44.966400,13.83887785,.00069796,81.3039,348.2274,125.9859,234.1946,0,U,65565,999,4206,.27181185E-4,.42E-6,0
PRAETORIAN SDA_603,2025-203B,2026-07-11T18:38:04.765056,13.83961800,.00106328,81.3046,347.9223,123.3335,236.8841,0,U,65566,999,4210,.85229401E-4,.107E-5,0
PRAETORIAN SDA_604,2025-203C,2026-07-11T12:32:13.961184,13.83049951,.00064726,81.3061,348.6073,129.6349,230.5379,0,U,65567,999,4204,.2727118E-4,.42E-6,0
PRAETORIAN SDA_605,2025-203D,2026-07-11T18:31:24.633696,13.83199715,.00092461,81.3027,348.0196,121.4027,238.8035,0,U,65568,999,4209,.4985193E-5,.17E-6,0
PRAETORIAN SDA_606,2025-203E,2026-07-11T18:10:03.656064,13.83199964,.00070905,81.3063,348.2701,123.8981,236.2851,0,U,65569,999,4208,.28461834E-4,.43E-6,0
PRAETORIAN SDA_607,2025-203F,2026-07-11T17:58:10.325568,13.83759170,.00098868,81.3045,347.9017,123.1457,237.0649,0,U,65570,999,4210,.16861738E-3,.199E-5,0
PRAETORIAN SDA_608,2025-203G,2026-07-11T12:20:52.634976,13.83819270,.00069693,81.3016,348.2835,128.6445,231.5336,0,U,65571,999,4205,.30343035E-4,.46E-6,0
PRAETORIAN SDA_609,2025-203H,2026-07-11T12:18:01.565568,13.84211938,.0007838,81.3055,348.2640,123.5207,236.6699,0,U,65572,999,4206,.12665743E-3,.153E-5,0
PRAETORIAN SDA_610,2025-203J,2026-07-08T21:24:36.728928,13.83769338,.00076481,81.3015,350.6711,134.1093,226.0694,0,U,65573,999,4169,.29957645E-4,.45E-6,0
PRAETORIAN SDA_611,2025-203K,2026-07-11T19:02:18.594528,13.83312098,.00065118,81.3020,348.1691,131.4634,228.7083,0,U,65574,999,4208,.37031103E-3,.418E-5,0
PRAETORIAN SDA_612,2025-203L,2026-07-11T18:03:08.427168,13.85041237,.00102103,81.3037,347.7331,123.4124,236.8012,0,U,65575,999,4211,.16785328E-3,.202E-5,0
PRAETORIAN SDA_613,2025-203M,2026-07-11T12:29:09.894624,13.82767439,.00066881,81.3008,348.4368,123.2072,236.9726,0,U,65576,999,4204,.26786494E-4,.41E-6,0
PRAETORIAN SDA_614,2025-203N,2026-07-11T12:42:06.228864,13.84778490,.00081593,81.3022,348.0229,121.6618,238.5336,0,U,65577,999,4208,.24698626E-4,.4E-6,0
PRAETORIAN SDA_615,2025-203P,2026-07-11T12:17:26.852640,13.84438360,.00100601,81.3030,348.0178,122.7313,237.4815,0,U,65578,999,4207,.57247506E-4,.76E-6,0
PRAETORIAN SDA_616,2025-203Q,2026-07-11T19:02:14.064576,13.83270032,.0006427,81.3075,348.3304,129.7031,230.4692,0,U,65579,999,4208,.13328812E-3,.158E-5,0
PRAETORIAN SDA_617,2025-203R,2026-07-11T12:39:42.118848,13.83151892,.00084131,81.3046,348.4045,122.1570,238.0404,0,U,65580,999,4205,.29797328E-4,.45E-6,0
PRAETORIAN SDA_618,2025-203S,2026-07-11T18:25:57.238176,13.84226068,.00107112,81.3031,347.7122,125.2915,234.9245,0,U,65581,999,4211,.17674529E-3,.209E-5,0
PRAETORIAN SDA_619,2025-203T,2026-07-11T12:36:15.493248,13.83806568,.0009197,81.3052,348.2620,123.1924,237.0116,0,U,65582,999,4269,.13429648E-3,.161E-5,0
PRAETORIAN SDA_620,2025-203U,2026-07-11T18:37:00.307200,13.83207003,.00084937,81.3040,348.0592,119.5003,240.7001,0,U,65583,999,4209,.74133657E-4,.93E-6,0
PRAETORIAN SDA_621,2025-203V,2026-07-11T12:38:53.850624,13.83803684,.00084382,81.3029,348.1932,117.4010,242.8006,0,U,65584,999,4206,.22745718E-4,.37E-6,0
PRAETORIAN SDA_601,2025-203W,2026-07-11T12:12:38.980800,13.83170458,.00064856,81.3044,348.5344,133.0933,227.0767,0,U,65585,999,4204,.10250024E-3,.124E-5,0
VICTUS HAZE PUMA,2026-142A,2026-07-11T18:11:41.099712,15.20833235,.00250775,97.4474,90.1014,278.6860,81.1534,0,U,69646,999,340,.10600008E-3,.2286E-4,0
